NORAD_CAT_ID,OBJECT_NAME,OBJECT_TYPE,EPOCH,MEAN_MOTION,ECCENTRICITY,INCLINATION,RA_OF_ASC_NODE,ARG_OF_PERICENTER,MEAN_ANOMALY,BSTAR,MEAN_MOTION_DOT,MEAN_MOTION_DDOT,TLE_LINE0,TLE_LINE1,TLE_LINE2,SEMIMAJOR_AXIS,PERIOD,APOGEE,PERIGEE,DECAYED
52667.0,STARLINK-4076,PAYLOAD,2022-10-20 18:01:13,15.0884072,0.0002345,53.2161,302.4769,46.3373,313.7813,4.7086e-05,4.61e-06,0.0,0 STARLINK-4076,1 52667U 22053M   22293.75084747  .00000461  00000-0  47086-4 0  9998,2 52667  53.2161 302.4769 0002345  46.3373 313.7813 15.08840720 24464,6917.878000000002,95.438,541.365,538.121,0.0
52667.0,STARLINK-4076,PAYLOAD,2022-10-21 08:19:40,15.08850918,0.0002261,53.2162,299.8006,45.6989,314.4188,0.00021423,3.124e-05,0.0,0 STARLINK-4076,1 52667U 22053M   22294.34700196  .00003124  00000-0  21423-3 0  9992,2 52667  53.2162 299.8006 0002261  45.6989 314.4188 15.08850918 24553,6917.847,95.437,541.276,538.148,0.0
52667.0,STARLINK-4076,PAYLOAD,2022-10-21 11:30:27,15.08852778,0.0002233,53.2162,299.2055,45.0813,315.036,0.0002546,3.767e-05,0.0,0 STARLINK-4076,1 52667U 22053M   22294.47948042  .00003767  00000-0  25460-3 0  9998,2 52667  53.2162 299.2055 0002233  45.0813 315.0360 15.08852778 24577,6917.840999999999,95.437,541.251,538.1619999999998,0.0
52667.0,STARLINK-4076,PAYLOAD,2022-10-21 17:52:00,15.08840399,0.000224,53.2158,298.016,43.87600000000001,316.241,5.5502e-05,5.95e-06,0.0,0 STARLINK-4076,1 52667U 22053M   22294.74444480  .00000595  00000-0  55502-4 0  9992,2 52667  53.2158 298.0160 0002240  43.8760 316.2410 15.08840399 24611,6917.879,95.438,541.294,538.195,0.0
52667.0,STARLINK-4076,PAYLOAD,2022-10-22 09:45:51,15.08850195,0.0002239,53.216,295.0423,43.7117,316.4052,0.00023807,3.504e-05,0.0,0 STARLINK-4076,1 52667U 22053M   22295.40684097  .00003504  00000-0  23807-3 0  9991,2 52667  53.2160 295.0423 0002239  43.7117 316.4052 15.08850195 24716,6917.849,95.437,541.263,538.165,0.0
52667.0,STARLINK-4076,PAYLOAD,2022-10-22 17:42:46,15.08854712,0.0002282,53.2162,293.5553,43.6737,316.4436,0.00032687,4.92e-05,0.0,0 STARLINK-4076,1 52667U 22053M   22295.73803842  .00004920  00000-0  32687-3 0  9997,2 52667  53.2162 293.5553 0002282  43.6737 316.4436 15.08854712 24760,6917.835,95.437,541.279,538.122,0.0
52667.0,STARLINK-4076,PAYLOAD,2022-10-23 03:15:05,15.088525199999998,0.0002251999999999,53.2157,291.7708,44.86,315.2574,0.00030786,4.616e-05,0.0,0 STARLINK-4076,1 52667U 22053M   22296.13548027  .00004616  00000-0  30786-3 0  9993,2 52667  53.2157 291.7708 0002252  44.8600 315.2574 15.08852520 24827,6917.842,95.437,541.265,538.149,0.0
52667.0,STARLINK-4076,PAYLOAD,2022-10-23 09:36:37,15.08856442,0.0002356999999999,53.216,290.5816,44.5851,315.533,0.00043777,6.689e-05,0.0,0 STARLINK-4076,1 52667U 22053M   22296.40043863  .00006689  00000-0  43777-3 0  9997,2 52667  53.2160 290.5816 0002357  44.5851 315.5330 15.08856442 24863,6917.83,95.437,541.326,538.065,0.0
52667.0,STARLINK-4076,PAYLOAD,2022-10-23 23:55:06,15.08851514,0.0002416,53.2156,287.9056,44.4715,315.6471,0.00027333,4.066e-05,0.0,0 STARLINK-4076,1 52667U 22053M   22296.99659797  .00004066  00000-0  27333-3 0  9997,2 52667  53.2156 287.9056 0002416  44.4715 315.6471 15.08851514 24950,6917.845,95.437,541.382,538.039,0.0
52667.0,STARLINK-4076,PAYLOAD,2022-10-24 09:27:24,15.08842496,0.0002432,53.2167,286.1214,39.8787,320.2383,3.5978e-05,2.84e-06,0.0,0 STARLINK-4076,1 52667U 22053M   22297.39403883  .00000284  00000-0  35978-4 0  9998,2 52667  53.2167 286.1214 0002432  39.8787 320.2383 15.08842496 25015,6917.873000000001,95.437,541.42,538.055,0.0
52667.0,STARLINK-4076,PAYLOAD,2022-10-24 15:48:58,15.08829283,0.0002444,53.2181,284.9293,44.2975,315.8213,-0.00019098,-3.326e-05,0.0,0 STARLINK-4076,1 52667U 22053M   22297.65900502 -.00003326  00000-0 -19098-3 0  9993,2 52667  53.2181 284.9293 0002444  44.2975 315.8213 15.08829283 25051,6917.913000000001,95.438,541.469,538.087,0.0
52667.0,STARLINK-4076,PAYLOAD,2022-10-25 10:53:35,15.08834787,0.0002149,53.2163,281.3634,44.9118,315.2047,4.6511e-05,4.52e-06,0.0,0 STARLINK-4076,1 52667U 22053M   22298.45388845  .00000452  00000-0  46511-4 0  9998,2 52667  53.2163 281.3634 0002149  44.9118 315.2047 15.08834787 25176,6917.896,95.438,541.248,538.275,0.0
52667.0,STARLINK-4076,PAYLOAD,2022-10-25 15:39:45,15.08837063,0.0002106,53.2163,280.4713,44.2706,315.8455,0.0001182,1.593e-05,0.0,0 STARLINK-4076,1 52667U 22053M   22298.65260952  .00001593  00000-0  11820-3 0  9999,2 52667  53.2163 280.4713 0002106  44.2706 315.8455 15.08837063 25206,6917.889,95.438,541.211,538.297,0.0
52667.0,STARLINK-4076,PAYLOAD,2022-10-26 02:47:27,15.08831136,0.0002015,53.2163,278.3888,38.9234,321.1903,0.00033994,5.125e-05,0.0,0 STARLINK-4076,1 52667U 22053M   22299.11629548  .00005125  00000-0  33994-3 0  9992,2 52667  53.2163 278.3888 0002015  38.9234 321.1903 15.08831136 25270,6917.906999999997,95.438,541.1659999999998,538.379,0.0
52667.0,STARLINK-4076,PAYLOAD,2022-10-26 10:44:23,15.08835075,0.000207,53.2162,276.9023,41.4617,318.6532,0.00035789,5.412e-05,0.0,0 STARLINK-4076,1 52667U 22053M   22299.44749770  .00005412  00000-0  35789-3 0  9991,2 52667  53.2162 276.9023 0002070  41.4617 318.6532 15.08835075 25320,6917.895,95.438,541.192,538.328,0.0
52667.0,STARLINK-4076,PAYLOAD,2022-10-27 07:24:24,15.08853636,0.0002051,53.2162,273.036,41.9791,318.1359,0.00056629,8.739e-05,0.0,0 STARLINK-4076,1 52667U 22053M   22300.30861258  .00008739  00000-0  56629-3 0  9996,2 52667  53.2162 273.0360 0002051  41.9791 318.1359 15.08853636 25458,6917.839,95.437,541.123,538.285,0.0
52667.0,STARLINK-4076,PAYLOAD,2022-10-27 15:21:19,15.08854921,0.0002099,53.2162,271.5491,42.0132,318.1020000000001,0.00046426,7.111e-05,0.0,0 STARLINK-4076,1 52667U 22053M   22300.63981025  .00007111  00000-0  46426-3 0  9994,2 52667  53.2162 271.5491 0002099  42.0132 318.1020 15.08854921 25508,6917.835,95.437,541.1519999999998,538.248,0.0
52667.0,STARLINK-4076,PAYLOAD,2022-10-28 04:04:24,15.08858298,0.0002130999999999,53.2163,269.1704,42.4945,317.6212,0.00039515,6.009e-05,0.0,0 STARLINK-4076,1 52667U 22053M   22301.16972551  .00006009  00000-0  39515-3 0  9993,2 52667  53.2163 269.1704 0002131  42.4945 317.6212 15.08858298 25588,6917.824000000001,95.436,541.164,538.215,0.0
52667.0,STARLINK-4076,PAYLOAD,2022-10-28 05:39:47,15.08857628,0.0002134999999999,53.2161,268.8729,42.5123,317.6034,0.00031125,4.671e-05,0.0,0 STARLINK-4076,1 52667U 22053M   22301.23596465  .00004671  00000-0  31125-3 0  9999,2 52667  53.2161 268.8729 0002135  42.5123 317.6034 15.08857628 25591,6917.8269999999975,95.436,541.168,538.215,0.0
52667.0,STARLINK-4076,PAYLOAD,2022-10-28 15:12:06,15.08851766,0.0002184,53.2162,267.0889,43.1457,316.9706,0.00010966,1.458e-05,0.0,0 STARLINK-4076,1 52667U 22053M   22301.63340366  .00001458  00000-0  10966-3 0  9990,2 52667  53.2162 267.0889 0002184  43.1457 316.9706 15.08851766 25653,6917.844,95.437,541.22,538.1990000000002,0.0
52667.0,STARLINK-4076,PAYLOAD,2022-10-29 03:55:09,15.08893482,0.0002126,53.2164,264.7094,49.6865,310.4312,0.00090833,0.00014219,0.0,0 STARLINK-4076,1 52667U 22053M   22302.16330149  .00014219  00000-0  90833-3 0  9997,2 52667  53.2164 264.7094 0002126  49.6865 310.4312 15.08893482 25739,6917.717,95.434,541.053,538.111,0.0
52667.0,STARLINK-4076,PAYLOAD,2022-10-29 08:41:19,15.08851777,0.0002044,53.2166,263.8175,43.3124,316.8028,-5.9607e-05,-1.237e-05,0.0,0 STARLINK-4076,1 52667U 22053M   22302.36203173 -.00001237  00000-0 -59607-4 0  9998,2 52667  53.2166 263.8175 0002044  43.3124 316.8028 15.08851777 25767,6917.844,95.437,541.123,538.295,0.0
52667.0,STARLINK-4076,PAYLOAD,2022-10-30 05:21:21,15.08834413,0.0001973,53.2171,259.9528,43.8533,316.2616,-0.00015147,-2.698e-05,0.0,0 STARLINK-4076,1 52667U 22053M   22303.22316558 -.00002698  00000-0 -15147-3 0  9998,2 52667  53.2171 259.9528 0001973  43.8533 316.2616 15.08834413 25899,6917.897,95.438,541.127,538.398,0.0
52667.0,STARLINK-4076,PAYLOAD,2022-10-31 08:22:53,15.08857675,0.0001881,53.2172,254.8969,49.9319,310.1838,-0.00020853,-3.607e-05,0.0,0 STARLINK-4076,1 52667U 22053M   22304.34923011 -.00003607  00000-0 -20853-3 0  9991,2 52667  53.2172 254.8969 0001881  49.9319 310.1838 15.08857675 26064,6917.826,95.436,540.993,538.39,0.0
52667.0,STARLINK-4076,PAYLOAD,2022-10-31 21:05:59,15.08826861,0.0001786999999999,53.2174,252.5183,46.9175,313.1967,6.1361e-05,6.88e-06,0.0,0 STARLINK-4076,1 52667U 22053M   22304.87916585  .00000688  00000-0  61361-4 0  9991,2 52667  53.2174 252.5183 0001787  46.9175 313.1967 15.08826861 26149,6917.920999999999,95.438,541.0219999999998,538.549,0.0
52667.0,STARLINK-4076,PAYLOAD,2022-11-01 01:52:09,15.08818552,0.0001802,53.2174,251.626,48.4792,311.6354,9.2891e-05,1.19e-05,0.0,0 STARLINK-4076,1 52667U 22053M   22305.07789167  .00001190  00000-0  92891-4 0  9999,2 52667  53.2174 251.6260 0001802  48.4792 311.6354 15.08818552 26179,6917.946,95.439,541.058,538.564,0.0
52667.0,STARLINK-4076,PAYLOAD,2022-11-01 06:38:19,15.08812916,0.0001869,53.2174,250.7336,49.1225,310.9928,0.00026758,3.97e-05,0.0,0 STARLINK-4076,1 52667U 22053M   22305.27661345  .00003970  00000-0  26758-3 0  9994,2 52667  53.2174 250.7336 0001869  49.1225 310.9928 15.08812916 26206,6917.9630000000025,95.439,541.121,538.535,0.0
52667.0,STARLINK-4076,PAYLOAD,2022-11-02 01:42:56,15.08837896,0.0001794,53.2173,247.1663,46.5902,313.5239,0.00012548,1.709e-05,0.0,0 STARLINK-4076,1 52667U 22053M   22306.07148607  .00001709  00000-0  12548-3 0  9994,2 52667  53.2173 247.1663 0001794  46.5902 313.5239 15.08837896 26329,6917.887,95.438,540.993,538.511,0.0
52667.0,STARLINK-4076,PAYLOAD,2022-11-02 12:50:38,15.08837992,0.0001831999999999,53.2175,245.0848,47.3763,312.7383,9.8679e-05,1.283e-05,0.0,0 STARLINK-4076,1 52667U 22053M   22306.53516858  .00001283  00000-0  98679-4 0  9999,2 52667  53.2175 245.0848 0001832  47.3763 312.7383 15.08837992 26395,6917.887,95.438,541.019,538.484,0.0
